EUTELSAT QUANTUM        
1 49056U 21069B   26007.91850419  .00000130  00000+0  00000+0 0  9996
2 49056   0.0102  21.8384 0003688 271.6899 192.2979  1.00272799 16320
EUTELSAT KONNECT VHTS   
1 53765U 22110A   26007.90669620  .00000021  00000+0  00000+0 0  9996
2 53765   0.0573  96.6428 0002533 170.3122 169.6389  1.00272145  5220
EUTELSAT HOTBIRD 13F    
1 54048U 22134A   26006.95860113  .00000088  00000+0  00000+0 0  9994
2 54048   0.0594 286.0803 0002243  70.2150 108.3041  1.00271427 11760
EUTELSAT HOTBIRD 13G    
1 54225U 22146A   26006.95860113  .00000088  00000+0  00000+0 0  9994
2 54225   0.0520 225.3413 0001778 319.8443 279.4202  1.00270668  5856
EUTELSAT 10B            
1 54259U 22157A   26007.90114127  .00000071  00000+0  00000+0 0  9998
2 54259   0.0606  94.5381 0000458  66.7447 280.5300  1.00269483 11418
EUTELSAT 36D            
1 59346U 24059A   26007.92405912  .00000159  00000+0  00000+0 0  9997
2 59346   0.0195  60.0333 0000672 293.2399 122.7047  1.00267439  6541
